ARIANE 5 R/B            
1 28499U 04049H   25351.90821186  .00000999  00000+0  11726-3 0  9996
2 28499  98.2524 152.3749 0083313 255.9497 103.2445 14.85024708133650
CZ-2D R/B               
1 28738U 05024B   25351.74668283  .00025825  00000+0  40785-3 0  9997
2 28738  97.3627 359.3261 0004696 347.4204  12.6931 15.53473632127036
ALOS (DAICHI)           
1 28931U 06002A   25351.73419158  .00001110  00000+0  19545-3 0  9994
2 28931  98.1098 303.1864 0001361 113.5739 246.5610 14.69501788 61443
H-2A R/B                
1 28932U 06002B   25351.87233469  .00008995  00000+0  47233-3 0  9992
2 28932  98.2315 127.0400 0054643 159.0238 201.3251 15.14672007 82049
RESURS-DK 1             
1 29228U 06021A   25351.72538363  .00002242  00000+0  13572-3 0  9995
2 29228  69.9337  88.9538 0006923 255.5284 104.5114 15.12189204 75139
CZ-4B R/B               
1 29507U 06046C   25351.85184944  .00004330  00000+0  22635-3 0  9998
2 29507  97.5732  31.9769 0033715 188.5277 171.5387 15.15923722 47640
CZ-2C R/B               
1 31114U 07010B   25351.86174755  .00000114  00000+0  71171-4 0  9993
2 31114  98.3976 104.2548 0059283 171.0838 189.1407 14.20211999968105
COSMO-SKYMED 1          
1 31598U 07023A   25351.93916039  .00003654  00000+0  33272-3 0  9991
2 31598  97.8835 177.3722 0001561  87.5282 272.6117 14.95805864  2684
COSMOS 2428             
1 31792U 07029A   25351.76501363  .00000136  00000+0  98817-4 0  9993
2 31792  70.9365  15.3287 0003952  16.4342 343.6906 14.12891474952524
SL-16 R/B               
1 31793U 07029B   25351.71386122  .00000110  00000+0  81950-4 0  9995
2 31793  70.9755 344.7012 0001986 261.8890 271.1314 14.14815208953771
KORONAS-FOTON           
1 33504U 09003A   25351.75361440  .00008940  00000+0  21314-3 0  9997
2 33504  82.4305   0.9102 0013433  92.7809 267.4975 15.41302335933114
CZ-2C R/B               
1 37731U 11030B   25351.79671553  .00001177  00000+0  15590-3 0  9993
2 37731  97.8418 305.7915 0051313 256.7043 166.0445 14.80917768777974
H-2A R/B                
1 38341U 12025E   25351.86214953  .00001746  00000+0  16513-3 0  9999
2 38341  98.4604 307.4873 0044047 219.2515 140.5507 14.94481567735992
SHIJIAN-16 (SJ-16)      
1 39358U 13057A   25351.96667494  .00000800  00000+0  81579-4 0  9992
2 39358  74.9730 339.7653 0017772 307.5535  52.4038 14.91997935659311
SL-4 R/B                
1 39679U 14021B   25351.29797529  .00010536  00000+0  25279-3 0  9990
2 39679  51.6088  18.4407 0101413 162.6468 197.8022 15.36777869643596
ALOS-2                  
1 39766U 14029A   25351.95077896  .00001160  00000+0  16217-3 0  9991
2 39766  97.9225  86.7226 0001342  97.2278 262.9086 14.79473076624781
YAOGAN-29               
1 41038U 15069A   25352.01535520  .00000075  00000+0  15956-4 0  9996
2 41038  98.0218  15.2044 0000312 198.0968 162.0234 14.82886752543774
ASTRO-H (HITOMI)        
1 41337U 16012A   25351.84832618  .00002597  00000+0  15272-3 0  9996
2 41337  30.9977 164.4367 0009736 229.9585 130.0199 15.09383944539850
HXMT (HUIYAN)           
1 42758U 17034A   25351.79733949  .00003985  00000+0  21176-3 0  9992
2 42758  43.0132 111.5602 0031170  76.6088 283.8231 15.16290697470109
CZ-2C R/B               
1 43521U 18054D   25351.80641020  .00106096  00000+0  66992-3 0  9996
2 43521  35.1316 146.5094 0015134 196.0827 163.9427 15.75143768415854
SAOCOM 1A               
1 43641U 18076A   25351.93769972  .00000315  00000+0  46103-4 0  9994
2 43641  97.8840 176.2835 0001440  80.4806 279.6570 14.82162982389259
H-2A R/B                
1 43682U 18084L   25351.50860367  .00015592  00000+0  42077-3 0  9999
2 43682  98.8768 186.5764 0027022 309.8767  50.0097 15.37541372393139
SAOCOM 1B               
1 46265U 20059A   25351.83393094  .00000556  00000+0  76399-4 0  9997
2 46265  97.8837 175.2817 0001409  84.9768 275.1606 14.82143701286626
CSS (TIANHE)            
1 48274U 21035A   25351.71045444  .00020350  00000+0  25362-3 0  9991
2 48274  41.4683 346.5260 0007703  74.1787 285.9900 15.59389869264806
COSMOS 2550             
1 48865U 21056A   25351.94265480 -.00000105  00000+0  26391-5 0  9991
2 48865  67.1456 288.1963 0008350 269.0721  90.9477 15.33835396250922
CZ-2C R/B               
1 52794U 22058K   25351.77553009  .00019418  00000+0  34856-3 0  9997
2 52794  50.1912  17.8630 0045066 219.3409 140.4283 15.48742641197417
CZ-2C R/B               
1 54039U 22132E   25351.56167712  .00025999  00000+0  38286-3 0  9995
2 54039  97.2939 347.8532 0022367  41.0861 319.2073 15.55110367177581
GSLV R/B                
1 54149U 22138AN  25351.60450472  .00001617  00000+0  14027-3 0  9994
2 54149  87.3824 193.8450 0024219  89.7304 270.6703 14.96155919171651
XRISM                   
1 57800U 23137A   25351.59247305  .00004021  00000+0  23322-3 0  9998
2 57800  31.0022  94.2108 0007739 294.0111  65.9717 15.10382851125364
ACS3                    
1 59588U 24077B   25351.88088839  .00021909  00000+0  18675-1 0  9991
2 59588  97.2639 306.3385 0076599 325.7769  33.8468 13.85738163 82856
SZ-21 MODULE            
1 66515U 25246C   25351.26873890  .00022864  00000+0  25031-3 0  9996
2 66515  41.4771 348.4140 0005990 284.3104  75.7070 15.62718015  5151
